FUNCUBE-1 (AO-73)       
1 39444U 13066AE  26068.90648558  .00009564  00000+0  61715-3 0  9993
2 39444  97.8195  38.4486 0037312 178.1154 182.0221 15.07917828664696
STARLINK-33897          
1 63865U 25094B   26068.89685542  .00002240  00000+0  19546-3 0  9992
2 63865  70.0017 233.9544 0003095 270.6556  89.4249 14.98333036 47459
